{
  "type": "FeatureCollection",
  "features": [
    {
      "type": "Feature",
      "properties": {
        "norad_id": 28051,
        "name": "IRS-P6 (RESOURCESAT-1)",
        "group": "resource",
        "lat": 23.403849155217245,
        "lon": -135.85384595385096,
        "alt_km": 726.6528368831796,
        "timestamp": "2025-12-26T19:22:38.550536+00:00",
        "meta_object_name": "IRS-P6 (RESOURCESAT-1)",
        "meta_object_id": "2003-046A",
        "meta_epoch": "2025-12-26T15:49:42.803616",
        "meta_mean_motion": 14.36081613,
        "meta_eccentricity": 0.0064956,
        "meta_inclination": 98.2158,
        "meta_ra_of_asc_node": 40.42,
        "meta_arg_of_pericenter": 139.1298,
        "meta_mean_anomaly": 332.8651,
        "meta_ephemeris_type": 0,
        "meta_classification_type": "U",
        "meta_norad_cat_id": 28051,
        "meta_element_set_no": 999,
        "meta_rev_at_epoch": 15576,
        "meta_bstar": 0.0001463827,
        "meta_mean_motion_dot": 3.96e-06,
        "meta_mean_motion_ddot": 0,
        "tle_line1": "1 28051U 03046A   25360.65952319  .00000396  00000+0  14638-3 0  9997",
        "tle_line2": "2 28051  98.2158  40.4200 0064956 139.1298 332.8651 14.36081613155769"
      },
      "geometry": {
        "type": "Point",
        "coordinates": [
          -135.85384595385096,
          23.403849155217245
        ]
      }
    },
    {
      "type": "Feature",
      "properties": {
        "norad_id": 28220,
        "name": "SHIYAN-1 (SY-1)",
        "group": "resource",
        "lat": 13.99268441559559,
        "lon": 61.19650772039635,
        "alt_km": 482.4629388845251,
        "timestamp": "2025-12-26T19:22:38.550547+00:00",
        "meta_object_name": "SHIYAN-1 (SY-1)",
        "meta_object_id": "2004-012A",
        "meta_epoch": "2025-12-26T14:36:08.115264",
        "meta_mean_motion": 15.2850507,
        "meta_eccentricity": 0.00051645,
        "meta_inclination": 97.8912,
        "meta_ra_of_asc_node": 62.9665,
        "meta_arg_of_pericenter": 266.678,
        "meta_mean_anomaly": 93.3867,
        "meta_ephemeris_type": 0,
        "meta_classification_type": "U",
        "meta_norad_cat_id": 28220,
        "meta_element_set_no": 999,
        "meta_rev_at_epoch": 18468,
        "meta_bstar": 0.00053281556,
        "meta_mean_motion_dot": 0.00014717,
        "meta_mean_motion_ddot": 0,
        "tle_line1": "1 28220U 04012A   25360.60842726  .00014717  00000+0  53282-3 0  9994",
        "tle_line2": "2 28220  97.8912  62.9665 0005164 266.6780  93.3867 15.28505070184683"
      },
      "geometry": {
        "type": "Point",
        "coordinates": [
          61.19650772039635,
          13.99268441559559
        ]
      }
    },
    {
      "type": "Feature",
      "properties": {
        "norad_id": 28376,
        "name": "AURA",
        "group": "resource",
        "lat": -60.48660902208881,
        "lon": 116.11858440645784,
        "alt_km": 698.0590339826131,
        "timestamp": "2025-12-26T19:22:38.550558+00:00",
        "meta_object_name": "AURA",
        "meta_object_id": "2004-026A",
        "meta_epoch": "2025-12-26T14:59:16.331712",
        "meta_mean_motion": 14.6097812,
        "meta_eccentricity": 0.00014499,
        "meta_inclination": 98.3204,
        "meta_ra_of_asc_node": 310.9172,
        "meta_arg_of_pericenter": 90.3144,
        "meta_mean_anomaly": 269.8222,
        "meta_ephemeris_type": 0,
        "meta_classification_type": "U",
        "meta_norad_cat_id": 28376,
        "meta_element_set_no": 999,
        "meta_rev_at_epoch": 14101,
        "meta_bstar": 0.00024784924,
        "meta_mean_motion_dot": 1.167e-05,
        "meta_mean_motion_ddot": 0,
        "tle_line1": "1 28376U 04026A   25360.62449458  .00001167  00000+0  24785-3 0  9999",
        "tle_line2": "2 28376  98.3204 310.9172 0001449  90.3144 269.8222 14.60978120141012"
      },
      "geometry": {
        "type": "Point",
        "coordinates": [
          116.11858440645784,
          -60.48660902208881
        ]
      }
    },
    {
      "type": "Feature",
      "properties": {
        "norad_id": 28649,
        "name": "IRS-P5 (CARTOSAT-1)",
        "group": "resource",
        "lat": 35.835825658792665,
        "lon": -147.90860305838132,
        "alt_km": 594.0096445165618,
        "timestamp": "2025-12-26T19:22:38.550568+00:00",
        "meta_object_name": "IRS-P5 (CARTOSAT-1)",
        "meta_object_id": "2005-017A",
        "meta_epoch": "2025-12-26T12:17:23.159904",
        "meta_mean_motion": 14.90450181,
        "meta_eccentricity": 4.684e-05,
        "meta_inclination": 97.5483,
        "meta_ra_of_asc_node": 26.3141,
        "meta_arg_of_pericenter": 73.2252,
        "meta_mean_anomaly": 286.9018,
        "meta_ephemeris_type": 0,
        "meta_classification_type": "U",
        "meta_norad_cat_id": 28649,
        "meta_element_set_no": 999,
        "meta_rev_at_epoch": 11809,
        "meta_bstar": 0.00017905905,
        "meta_mean_motion_dot": 1.694e-05,
        "meta_mean_motion_ddot": 0,
        "tle_line1": "1 28649U 05017A   25360.51207361  .00001694  00000+0  17906-3 0  9998",
        "tle_line2": "2 28649  97.5483  26.3141 0000468  73.2252 286.9018 14.90450181118099"
      },
      "geometry": {
        "type": "Point",
        "coordinates": [
          -147.90860305838132,
          35.835825658792665
        ]
      }
    },
    {
      "type": "Feature",
      "properties": {
        "norad_id": 28893,
        "name": "SINAH 1",
        "group": "resource",
        "lat": -59.0447305318869,
        "lon": -64.61488658677925,
        "alt_km": 696.460742940013,
        "timestamp": "2025-12-26T19:22:38.550579+00:00",
        "meta_object_name": "SINAH 1",
        "meta_object_id": "2005-043D",
        "meta_epoch": "2025-12-26T15:00:17.932320",
        "meta_mean_motion": 14.63976969,
        "meta_eccentricity": 0.00157352,
        "meta_inclination": 98.261,
        "meta_ra_of_asc_node": 129.2203,
        "meta_arg_of_pericenter": 96.5513,
        "meta_mean_anomaly": 263.7481,
        "meta_ephemeris_type": 0,
        "meta_classification_type": "U",
        "meta_norad_cat_id": 28893,
        "meta_element_set_no": 999,
        "meta_rev_at_epoch": 7527,
        "meta_bstar": 0.00010603641,
        "meta_mean_motion_dot": 5.07e-06,
        "meta_mean_motion_ddot": 0,
        "tle_line1": "1 28893U 05043D   25360.62520755  .00000507  00000+0  10604-3 0  9995",
        "tle_line2": "2 28893  98.2610 129.2203 0015735  96.5513 263.7481 14.63976969 75279"
      },
      "geometry": {
        "type": "Point",
        "coordinates": [
          -64.61488658677925,
          -59.0447305318869
        ]
      }
    },
    {
      "type": "Feature",
      "properties": {
        "norad_id": 29079,
        "name": "EROS B",
        "group": "resource",
        "lat": -55.450542220420246,
        "lon": -72.70037463356351,
        "alt_km": 356.50725504751426,
        "timestamp": "2025-12-26T19:22:38.550589+00:00",
        "meta_object_name": "EROS B",
        "meta_object_id": "2006-014A",
        "meta_epoch": "2025-12-26T13:47:45.503808",
        "meta_mean_motion": 15.72938386,
        "meta_eccentricity": 0.00047834,
        "meta_inclination": 97.3449,
        "meta_ra_of_asc_node": 117.852,
        "meta_arg_of_pericenter": 312.1845,
        "meta_mean_anomaly": 47.9013,
        "meta_ephemeris_type": 0,
        "meta_classification_type": "U",
        "meta_norad_cat_id": 29079,
        "meta_element_set_no": 999,
        "meta_rev_at_epoch": 9297,
        "meta_bstar": 0.0014674105,
        "meta_mean_motion_dot": 0.0020356,
        "meta_mean_motion_ddot": 0,
        "tle_line1": "1 29079U 06014A   25360.57483222  .00203560  00000+0  14674-2 0  9996",
        "tle_line2": "2 29079  97.3449 117.8520 0004783 312.1845  47.9013 15.72938386 92978"
      },
      "geometry": {
        "type": "Point",
        "coordinates": [
          -72.70037463356351,
          -55.450542220420246
        ]
      }
    },
    {
      "type": "Feature",
      "properties": {
        "norad_id": 29228,
        "name": "RESURS-DK 1",
        "group": "resource",
        "lat": 63.27865610427979,
        "lon": -161.08076928971627,
        "alt_km": 526.1774590541781,
        "timestamp": "2025-12-26T19:22:38.550600+00:00",
        "meta_object_name": "RESURS-DK 1",
        "meta_object_id": "2006-021A",
        "meta_epoch": "2025-12-26T14:08:19.212864",
        "meta_mean_motion": 15.12237827,
        "meta_eccentricity": 0.0006959,
        "meta_inclination": 69.9336,
        "meta_ra_of_asc_node": 66.0447,
        "meta_arg_of_pericenter": 246.6774,
        "meta_mean_anomaly": 113.3659,
        "meta_ephemeris_type": 0,
        "meta_classification_type": "U",
        "meta_norad_cat_id": 29228,
        "meta_element_set_no": 999,
        "meta_rev_at_epoch": 7647,
        "meta_bstar": 0.00017973319,
        "meta_mean_motion_dot": 3.008e-05,
        "meta_mean_motion_ddot": 0,
        "tle_line1": "1 29228U 06021A   25360.58911126  .00003008  00000+0  17973-3 0  9991",
        "tle_line2": "2 29228  69.9336  66.0447 0006959 246.6774 113.3659 15.12237827 76473"
      },
      "geometry": {
        "type": "Point",
        "coordinates": [
          -161.08076928971627,
          63.27865610427979
        ]
      }
    }
  ]
}